[{"OBJECT_NAME":"KANOPUS-V 4","OBJECT_ID":"2018-014B","EPOCH":"2026-03-09T22:48:00.889056","MEAN_MOTION":15.22813706,"ECCENTRICITY":0.00013304,"INCLINATION":97.365,"RA_OF_ASC_NODE":336.6243,"ARG_OF_PERICENTER":69.4905,"MEAN_ANOMALY":290.6475,"EPHEMERIS_TYPE":0,"CLASSIFICATION_TYPE":"U","NORAD_CAT_ID":43181,"ELEMENT_SET_NO":999,"REV_AT_EPOCH":44963,"BSTAR":0.00051006309,"MEAN_MOTION_DOT":0.00011868,"MEAN_MOTION_DDOT":0},{"OBJECT_NAME":"SNUSAT-2","OBJECT_ID":"2018-099AA","EPOCH":"2026-03-09T01:47:07.616544","MEAN_MOTION":15.20158581,"ECCENTRICITY":0.00089847,"INCLINATION":97.4195,"RA_OF_ASC_NODE":123.05,"ARG_OF_PERICENTER":287.8247,"MEAN_ANOMALY":72.2008,"EPHEMERIS_TYPE":0,"CLASSIFICATION_TYPE":"U","NORAD_CAT_ID":43782,"ELEMENT_SET_NO":999,"REV_AT_EPOCH":39781,"BSTAR":0.00056668198,"MEAN_MOTION_DOT":0.00012216,"MEAN_MOTION_DDOT":0}]
